FENGYUN 1C DEB          
1 29859U 99025FD  17345.92908212  .00000798  00000-0  75127-3 0  9990
2 29859  98.3451 169.9333 0323039  74.8750 288.7887 13.62651825540758
